{"type": "FeatureCollection", "features": [ {"type": "Feature", "properties": {"norad_id": 34409, "name": "COSMOS 2251 DEB", "group": "cosmos-2251-debris", "lat": 61.58754952911139, "lon": -49.98634455130099, "alt_km": 680.4847986169452, "timestamp": "2025-12-27T20:30:59.674184+00:00", "meta": {"OBJECT_NAME": "COSMOS 2251 DEB", "OBJECT_ID": "1993-036RA", "EPOCH": "2025-12-26T13:43:20.964288", "MEAN_MOTION": 14.58060964, "ECCENTRICITY": 0.0080461, "INCLINATION": 74.0637, "RA_OF_ASC_NODE": 280.5674, "ARG_OF_PERICENTER": 351.315, "MEAN_ANOMALY": 181.8118, "EPHEMERIS_TYPE": 0, "CLASSIFICATION_TYPE": "U", "NORAD_CAT_ID": 34409, "ELEMENT_SET_NO": 999, "REV_AT_EPOCH": 89394, "BSTAR": 0.00027355, "MEAN_MOTION_DOT": 1.284e-05, "MEAN_MOTION_DDOT": 0}, "tle": {"line1": "1 34409U 93036RA  25360.57177042  .00001284  00000+0  27355-3 0  9999", "line2": "2 34409  74.0637 280.5674 0080461 351.3150 181.8118 14.58060964893942"}}, "geometry": {"type": "Point", "coordinates": [-49.98634455130099, 61.58754952911139]}}, {"type": "Feature", "properties": {"norad_id": 34410, "name": "COSMOS 2251 DEB", "group": "cosmos-2251-debris", "lat": -30.67144554923393, "lon": 59.46942773312717, "alt_km": 522.3638483756886, "timestamp": "2025-12-27T20:30:59.674194+00:00", "meta": {"OBJECT_NAME": "COSMOS 2251 DEB", "OBJECT_ID": "1993-036RB", "EPOCH": "2025-12-26T15:17:57.460704", "MEAN_MOTION": 15.20204778, "ECCENTRICITY": 0.0021247, "INCLINATION": 73.7358, "RA_OF_ASC_NODE": 232.0969, "ARG_OF_PERICENTER": 70.7601, "MEAN_ANOMALY": 321.2169, "EPHEMERIS_TYPE": 0, "CLASSIFICATION_TYPE": "U", "NORAD_CAT_ID": 34410, "ELEMENT_SET_NO": 999, "REV_AT_EPOCH": 89985, "BSTAR": 0.0022532, "MEAN_MOTION_DOT": 0.00049424, "MEAN_MOTION_DDOT": 0}, "tle": {"line1": "1 34410U 93036RB  25360.63747061  .00049424  00000+0  22532-2 0  9991", "line2": "2 34410  73.7358 232.0969 0021247  70.7601 321.2169 15.20204778899854"}}, "geometry": {"type": "Point", "coordinates": [59.46942773312717, -30.67144554923393]}}, {"type": "Feature", "properties": {"norad_id": 34412, "name": "COSMOS 2251 DEB", "group": "cosmos-2251-debris", "lat": 45.441123029661895, "lon": -46.8184411916263, "alt_km": 604.3897413673312, "timestamp": "2025-12-27T20:30:59.674204+00:00", "meta": {"OBJECT_NAME": "COSMOS 2251 DEB", "OBJECT_ID": "1993-036RD", "EPOCH": "2025-12-27T03:42:55.901952", "MEAN_MOTION": 14.4733154, "ECCENTRICITY": 0.01877382, "INCLINATION": 73.9484, "RA_OF_ASC_NODE": 297.4976, "ARG_OF_PERICENTER": 29.2654, "MEAN_ANOMALY": 331.8863, "EPHEMERIS_TYPE": 0, "CLASSIFICATION_TYPE": "U", "NORAD_CAT_ID": 34412, "ELEMENT_SET_NO": 999, "REV_AT_EPOCH": 87859, "BSTAR": 0.0021936593, "MEAN_MOTION_DOT": 0.0001001, "MEAN_MOTION_DDOT": 0}, "tle": {"line1": "1 34412U 93036RD  25361.15481368  .00010010  00000+0  21937-2 0  9993", "line2": "2 34412  73.9484 297.4976 0187738  29.2654 331.8863 14.47331540878598"}}, "geometry": {"type": "Point", "coordinates": [-46.8184411916263, 45.441123029661895]}}, {"type": "Feature", "properties": {"norad_id": 34413, "name": "COSMOS 2251 DEB", "group": "cosmos-2251-debris", "lat": -73.05791980869606, "lon": 167.36701577135383, "alt_km": 747.9454576770704, "timestamp": "2025-12-27T20:30:59.674214+00:00", "meta": {"OBJECT_NAME": "COSMOS 2251 DEB", "OBJECT_ID": "1993-036RE", "EPOCH": "2025-12-27T09:57:52.339104", "MEAN_MOTION": 14.29204894, "ECCENTRICITY": 0.0090938, "INCLINATION": 74.0302, "RA_OF_ASC_NODE": 238.2229, "ARG_OF_PERICENTER": 311.9899, "MEAN_ANOMALY": 223.0744, "EPHEMERIS_TYPE": 0, "CLASSIFICATION_TYPE": "U", "NORAD_CAT_ID": 34413, "ELEMENT_SET_NO": 999, "REV_AT_EPOCH": 87340, "BSTAR": 0.0012953, "MEAN_MOTION_DOT": 3.415e-05, "MEAN_MOTION_DDOT": 0}, "tle": {"line1": "1 34413U 93036RE  25361.41518911  .00003415  00000+0  12953-2 0  9997", "line2": "2 34413  74.0302 238.2229 0090938 311.9899 223.0744 14.29204894873407"}}, "geometry": {"type": "Point", "coordinates": [167.36701577135383, -73.05791980869606]}}, {"type": "Feature", "properties": {"norad_id": 34420, "name": "COSMOS 2251 DEB", "group": "cosmos-2251-debris", "lat": -20.219189900932406, "lon": 68.66940411359266, "alt_km": 733.4411741531767, "timestamp": "2025-12-27T20:30:59.674225+00:00", "meta": {"OBJECT_NAME": "COSMOS 2251 DEB", "OBJECT_ID": "1993-036RM", "EPOCH": "2025-12-27T07:51:27.397152", "MEAN_MOTION": 14.68340437, "ECCENTRICITY": 0.0105928, "INCLINATION": 74.0332, "RA_OF_ASC_NODE": 75.7424, "ARG_OF_PERICENTER": 193.396, "MEAN_ANOMALY": 237.9812, "EPHEMERIS_TYPE": 0, "CLASSIFICATION_TYPE": "U", "NORAD_CAT_ID": 34420, "ELEMENT_SET_NO": 999, "REV_AT_EPOCH": 89984, "BSTAR": 0.00024227, "MEAN_MOTION_DOT": 1.488e-05, "MEAN_MOTION_DDOT": 0}, "tle": {"line1": "1 34420U 93036RM  25361.32740043  .00001488  00000+0  24227-3 0  9994", "line2": "2 34420  74.0332  75.7424 0105928 193.3960 237.9812 14.68340437899849"}}, "geometry": {"type": "Point", "coordinates": [68.66940411359266, -20.219189900932406]}}, {"type": "Feature", "properties": {"norad_id": 34425, "name": "COSMOS 2251 DEB", "group": "cosmos-2251-debris", "lat": 73.965512807105, "lon": 119.8838359077086, "alt_km": 669.2225257965756, "timestamp": "2025-12-27T20:30:59.674235+00:00", "meta": {"OBJECT_NAME": "COSMOS 2251 DEB", "OBJECT_ID": "1993-036RS", "EPOCH": "2025-12-27T11:53:26.238048", "MEAN_MOTION": 14.62207492, "ECCENTRICITY": 0.0023984, "INCLINATION": 74.0192, "RA_OF_ASC_NODE": 26.2316, "ARG_OF_PERICENTER": 148.3855, "MEAN_ANOMALY": 211.8758, "EPHEMERIS_TYPE": 0, "CLASSIFICATION_TYPE": "U", "NORAD_CAT_ID": 34425, "ELEMENT_SET_NO": 999, "REV_AT_EPOCH": 88956, "BSTAR": 0.00059685, "MEAN_MOTION_DOT": 2.989e-05, "MEAN_MOTION_DDOT": 0}, "tle": {"line1": "1 34425U 93036RS  25361.49544257  .00002989  00000+0  59685-3 0  9999", "line2": "2 34425  74.0192  26.2316 0023984 148.3855 211.8758 14.62207492889568"}}, "geometry": {"type": "Point", "coordinates": [119.8838359077086, 73.965512807105]}}, {"type": "Feature", "properties": {"norad_id": 34429, "name": "COSMOS 2251 DEB", "group": "cosmos-2251-debris", "lat": -35.751103991353084, "lon": 123.02641540385521, "alt_km": 416.21987758217165, "timestamp": "2025-12-27T20:30:59.674245+00:00", "meta": {"OBJECT_NAME": "COSMOS 2251 DEB", "OBJECT_ID": "1993-036RW", "EPOCH": "2025-12-27T10:04:31.868256", "MEAN_MOTION": 15.4859688, "ECCENTRICITY": 0.0015117, "INCLINATION": 73.9678, "RA_OF_ASC_NODE": 135.9304, "ARG_OF_PERICENTER": 342.0085, "MEAN_ANOMALY": 76.207, "EPHEMERIS_TYPE": 0, "CLASSIFICATION_TYPE": "U", "NORAD_CAT_ID": 34429, "ELEMENT_SET_NO": 999, "REV_AT_EPOCH": 89675, "BSTAR": 0.0061312, "MEAN_MOTION_DOT": 0.00343279, "MEAN_MOTION_DDOT": 0}, "tle": {"line1": "1 34429U 93036RW  25361.41981329  .00343279  00000+0  61312-2 0  9999", "line2": "2 34429  73.9678 135.9304 0015117 342.0085  76.2070 15.48596880896757"}}, "geometry": {"type": "Point", "coordinates": [123.02641540385521, -35.751103991353084]}}, {"type": "Feature", "properties": {"norad_id": 34430, "name": "COSMOS 2251 DEB", "group": "cosmos-2251-debris", "lat": 74.03693945794582, "lon": 4.010810093626986, "alt_km": 765.3182270996149, "timestamp": "2025-12-27T20:30:59.674255+00:00", "meta": {"OBJECT_NAME": "COSMOS 2251 DEB", "OBJECT_ID": "1993-036RX", "EPOCH": "2025-12-27T11:45:56.088864", "MEAN_MOTION": 14.3967709, "ECCENTRICITY": 0.0060984, "INCLINATION": 74.0517, "RA_OF_ASC_NODE": 276.1464, "ARG_OF_PERICENTER": 342.4065, "MEAN_ANOMALY": 17.4976, "EPHEMERIS_TYPE": 0, "CLASSIFICATION_TYPE": "U", "NORAD_CAT_ID": 34430, "ELEMENT_SET_NO": 999, "REV_AT_EPOCH": 88167, "BSTAR": 0.0005086, "MEAN_MOTION_DOT": 1.6e-05, "MEAN_MOTION_DDOT": 0}, "tle": {"line1": "1 34430U 93036RX  25361.49023251  .00001600  00000+0  50860-3 0  9996", "line2": "2 34430  74.0517 276.1464 0060984 342.4065  17.4976 14.39677090881671"}}, "geometry": {"type": "Point", "coordinates": [4.010810093626986, 74.03693945794582]}}, {"type": "Feature", "properties": {"norad_id": 34431, "name": "COSMOS 2251 DEB", "group": "cosmos-2251-debris", "lat": 55.9597980023373, "lon": -57.163938034425215, "alt_km": 742.0598453236325, "timestamp": "2025-12-27T20:30:59.674265+00:00", "meta": {"OBJECT_NAME": "COSMOS 2251 DEB", "OBJECT_ID": "1993-036RY", "EPOCH": "2025-12-27T09:52:29.800128", "MEAN_MOTION": 14.28827205, "ECCENTRICITY": 0.0067577, "INCLINATION": 74.0743, "RA_OF_ASC_NODE": 148.6417, "ARG_OF_PERICENTER": 130.4053, "MEAN_ANOMALY": 230.302, "EPHEMERIS_TYPE": 0, "CLASSIFICATION_TYPE": "U", "NORAD_CAT_ID": 34431, "ELEMENT_SET_NO": 999, "REV_AT_EPOCH": 87352, "BSTAR": 0.00084584, "MEAN_MOTION_DOT": 2.161e-05, "MEAN_MOTION_DDOT": 0}, "tle": {"line1": "1 34431U 93036RY  25361.41145602  .00002161  00000+0  84584-3 0  9997", "line2": "2 34431  74.0743 148.6417 0067577 130.4053 230.3020 14.28827205873525"}}, "geometry": {"type": "Point", "coordinates": [-57.163938034425215, 55.9597980023373]}}, {"type": "Feature", "properties": {"norad_id": 34432, "name": "COSMOS 2251 DEB", "group": "cosmos-2251-debris", "lat": 17.830967724233393, "lon": -109.66134505604235, "alt_km": 752.5359715122904, "timestamp": "2025-12-27T20:30:59.674275+00:00", "meta": {"OBJECT_NAME": "COSMOS 2251 DEB", "OBJECT_ID": "1993-036RZ", "EPOCH": "2025-12-27T04:29:00.465216", "MEAN_MOTION": 14.02966665, "ECCENTRICITY": 0.01811034, "INCLINATION": 73.8286, "RA_OF_ASC_NODE": 76.8708, "ARG_OF_PERICENTER": 157.2588, "MEAN_ANOMALY": 231.0567, "EPHEMERIS_TYPE": 0, "CLASSIFICATION_TYPE": "U", "NORAD_CAT_ID": 34432, "ELEMENT_SET_NO": 999, "REV_AT_EPOCH": 85887, "BSTAR": 0.0012687915, "MEAN_MOTION_DOT": 2.251e-05, "MEAN_MOTION_DDOT": 0}, "tle": {"line1": "1 34432U 93036RZ  25361.18681094  .00002251  00000+0  12688-2 0  9997", "line2": "2 34432  73.8286  76.8708 0181103 157.2588 231.0567 14.02966665858873"}}, "geometry": {"type": "Point", "coordinates": [-109.66134505604235, 17.830967724233393]}}]}